[{"OBJECT_NAME":"STARLINK-30486","OBJECT_ID":"2023-153U","EPOCH":"2026-03-09T22:00:01.999584","MEAN_MOTION":15.26716331,"ECCENTRICITY":0.0001476,"INCLINATION":43.0023,"RA_OF_ASC_NODE":65.5304,"ARG_OF_PERICENTER":262.5123,"MEAN_ANOMALY":101.6207,"EPHEMERIS_TYPE":0,"CLASSIFICATION_TYPE":"U","NORAD_CAT_ID":58009,"ELEMENT_SET_NO":999,"REV_AT_EPOCH":562,"BSTAR":0.0018657337,"MEAN_MOTION_DOT":0.00050091,"MEAN_MOTION_DDOT":0},{"OBJECT_NAME":"ELECTRON KICK STAGE R\/B","OBJECT_ID":"2019-069C","EPOCH":"2026-03-09T21:46:17.810112","MEAN_MOTION":14.3018174,"ECCENTRICITY":0.04358653,"INCLINATION":87.9001,"RA_OF_ASC_NODE":206.3408,"ARG_OF_PERICENTER":37.1425,"MEAN_ANOMALY":325.9095,"EPHEMERIS_TYPE":0,"CLASSIFICATION_TYPE":"U","NORAD_CAT_ID":44636,"ELEMENT_SET_NO":999,"REV_AT_EPOCH":33098,"BSTAR":0.0004662077,"MEAN_MOTION_DOT":3.501e-5,"MEAN_MOTION_DDOT":0}]
